#aV2015  3  7  0  0  0.00000000     288 DD+AD WGS84 FIT  NGA
## 1834 518400.00000000   300.00000000 57088 0.0000000000000
+   31     1  2  3  4  5  6  7  8  9 10 11 12 13 14 15 16 17
+         18 19 20 21 22 23 24 25 27 28 29 30 31 32  0  0  0
+          0  0  0  0  0  0  0  0  0  0  0  0  0  0  0  0  0
+          0  0  0  0  0  0  0  0  0  0  0  0  0  0  0  0  0
+          0  0  0  0  0  0  0  0  0  0  0  0  0  0  0  0  0
++         2  2  2  2  2  2  2  2  2  2  2  2  2  2  2  2  2
++         2  2  2  2  2  2  2  2  2  2  2  2  2  2  0  0  0
++         0  0  0  0  0  0  0  0  0  0  0  0  0  0  0  0  0
++         0  0  0  0  0  0  0  0  0  0  0  0  0  0  0  0  0
++         0  0  0  0  0  0  0  0  0  0  0  0  0  0  0  0  0
%c cc cc ccc ccc cccc cccc cccc cccc ccccc ccccc ccccc ccccc
%c cc cc ccc ccc cccc cccc cccc cccc ccccc ccccc ccccc ccccc
%f  0.0000000  0.000000000  0.00000000000  0.000000000000000
%f  0.0000000  0.000000000  0.00000000000  0.000000000000000
%i    0    0    0    0      0      0      0      0         0
%i    0    0    0    0      0      0      0      0         0
/*      NGA, ST. LOUIS,MO.                                  
/*   EPHEMERIS COMPUTED FROM  1 DAYS OF DATA                
/*   EPOCHA SMOOTHER                                       
/* CCCCCCCCCCCCCCCCCCCCCCCCCCCCCCCCCCCCCCCCCCCCCCCCCCCCCCCCC
*  2015  3  7  3 50  0.00000000
P  1  13247.356306 -13814.541838  18290.520483     -8.253674                    
V  1    777.831610  23428.974968  17257.844213      0.004260                    
P  2 -14064.206250 -11299.706255 -19286.566499    552.016565                    
V  2   1301.883994 -25176.652396  13091.416824      0.023064                    
P  3  22830.174394 -13536.034892  -1519.164426    243.296210                    
V  3   3038.910455   1554.741450  31624.717437      0.180031                    
P  4  15440.963476  -2958.786995  21069.571734     -8.533078                    
V  4    151.318240  27606.102318   3973.235431     -0.007797                    
P  5 -21798.367816   -646.320999 -15337.532672   -270.220874                    
V  5  15928.321573 -11188.937733 -22065.973528      0.049768                    
P  6  -6842.308772 -23325.948875 -10721.834979    101.314935                    
V  6   2780.020081 -13533.197197  27661.940676      0.107537                    
P  7   7066.851919 -23943.346590  -8422.419563    445.686400                    
V  7   2010.114981  11046.419021 -29726.239934      0.030371                    
P  8  10785.115676  14002.127765 -19827.069459     18.271196                    
V  8  -4542.469873  24935.651077  14387.829423      0.003753                    
P  9   6122.203605 -14117.611635 -21657.207926   -106.043708                    
V  9  23574.866677  14139.537626  -2565.176481     -0.103591                    
P 10  -5551.223615 -14879.291820 -21647.261429   -166.165008                    
V 10  23817.809728 -12064.079677   2648.284524     -0.015197                    
P 11  14718.165255  -7550.068631  20249.052712   -562.519449                    
V 11   8868.185256  25752.984442   3220.059177     -0.026290                    
P 12 -24106.862508  10780.305143   1178.690051    274.609399                    
V 12    537.438839  -2580.553503  32483.761368      0.029995                    
P 13 -22638.799305 -12014.612069   6574.205209    -94.333794                    
V 13  -5269.659223  -7164.242446 -30654.653911     -0.034573                    
P 14  12356.947119  19936.013907  12834.182087     81.269898                    
V 14 -13978.481284  -7738.955868  25809.023519     -0.035307                    
P 15 -22000.027260    477.586924  15004.525236   -236.197759                    
V 15 -15562.702762 -11435.540883 -22004.609104     -0.022286                    
P 16  21545.713776   1484.823714 -15779.274416   -150.406396                    
V 16 -17456.569301   9209.071676 -22695.421200      0.034043                    
P 17 -10550.465041 -19560.235020  14996.141329   -159.543012                    
V 17  16138.308636   9027.181948  23382.047154     -0.019955                    
P 18  -8291.635816  19135.261856  16756.252683    384.458226                    
V 18 -19193.577580   7928.100471 -19415.567362      0.027978                    
P 19  22555.589126   5826.155444  12997.752951   -503.023934                    
V 19  12163.347098  11446.792721 -25435.209461     -0.013627                    
P 20  -3168.713073 -16470.763266 -20788.009622    296.907689                    
V 20  22525.514819 -13201.490633   7182.467822      0.040639                    
P 21  -3046.644661  25820.279292  -3588.869524   -423.719636                    
V 21  -3952.415645  -5523.979022 -30948.133538     -0.039693                    
P 22   4449.686336  15790.042630  21092.867054    325.740159                    
V 22 -23382.107520  12377.808074  -4554.699461      0.042529                    
P 23  16532.581756  -6387.790927 -19770.569930    -93.367617                    
V 23  20897.793730  14334.087841  12332.517729     -0.025962                    
P 24 -14108.439945  10768.601471  19683.680228    -44.545351                    
V 24   -965.180127 -25144.761474  13184.640106     -0.006370                    
P 25 -17087.275997  17313.044395 -10552.392918     -8.901007                    
V 25 -12698.441056   4483.660047  28301.960306     -0.030353                    
P 27  23586.705628  11932.957557   3097.378682     56.114848                    
V 27   2023.439930   4222.603705 -31483.831714      0.026385                    
P 28   1759.135653 -16322.943533  21481.593964    424.171770                    
V 28  23703.680279 -10167.851349 -10049.257297      0.025550                    
P 29 -10245.580316  11034.375214 -21844.008142    596.213005                    
V 29 -22709.507915 -16006.190483   2604.611262      0.024379                    
P 30   1236.050270 -26415.321577   2173.822280    -81.517416                    
V 30   3248.799306  -2449.934665 -31540.129602      0.021986                    
P 31   7706.717643  21382.588163 -13318.630799    321.759953                    
V 31  -3187.720500  17075.955794  25645.129057     -0.008999                    
P 32  23763.979464  -1647.137554  11141.947545   -207.513762                    
V 32 -11904.304133   8687.092134  27189.572275      0.093080                    
EOF
